FALCONSAT-10            
1 58291U 23174AM  26068.70247784  .00006748  00000+0  25969-3 0  9991
2 58291  97.3865 145.7938 0008932 169.5942 190.5483 15.26670596129582
STARLINK-34269          
1 64386U 25127S   26068.31531919  .00036763  00000+0  13382-2 0  9991
2 64386  42.9955 181.5617 0000907 307.1563  52.9205 15.27595807 42416
